[{"OBJECT_NAME":"FALCON EYE 2","OBJECT_ID":"2020-090A","EPOCH":"2026-03-09T02:26:19.073760","MEAN_MOTION":14.84956326,"ECCENTRICITY":0.00011533,"INCLINATION":97.8521,"RA_OF_ASC_NODE":144.2551,"ARG_OF_PERICENTER":93.9066,"MEAN_ANOMALY":266.228,"EPHEMERIS_TYPE":0,"CLASSIFICATION_TYPE":"U","NORAD_CAT_ID":47226,"ELEMENT_SET_NO":999,"REV_AT_EPOCH":28538,"BSTAR":0.0002554448,"MEAN_MOTION_DOT":2.123e-5,"MEAN_MOTION_DDOT":0},{"OBJECT_NAME":"IRIDIUM 33 DEB","OBJECT_ID":"1997-051CN","EPOCH":"2026-03-09T19:32:39.686208","MEAN_MOTION":14.87082695,"ECCENTRICITY":0.00091607,"INCLINATION":86.378,"RA_OF_ASC_NODE":328.9637,"ARG_OF_PERICENTER":46.4147,"MEAN_ANOMALY":357.067,"EPHEMERIS_TYPE":0,"CLASSIFICATION_TYPE":"U","NORAD_CAT_ID":34079,"ELEMENT_SET_NO":999,"REV_AT_EPOCH":90270,"BSTAR":0.0018267076,"MEAN_MOTION_DOT":0.00016445,"MEAN_MOTION_DDOT":0}]
